#dP2020  3 14  0  0  0.00000000      97 __u+U IGS08 FIT  IAC
## 2096 518400.00000000   900.00000000 58922 0.0000000000000
+  121   C01C02C03C04C05C06C07C08C09C10C11C12C13C14C16C19C20
+        C21C22C23C24C25C26C27C28C29C30C32C33C34C35C36C37C38
+        C39C40C43C44C45C46E01E02E03E04E05E07E08E09E11E12E13
+        E14E15E18E19E21E24E25E26E27E30E31E33E36G01G02G03G04
+        G05G06G07G08G09G10G11G12G13G14G15G16G17G19G20G21G22
+        G23G24G25G26G27G28G29G30G31G32J01J02J03R01R02R03R04
+        R05R07R08R09R11R12R13R14R15R16R17R18R19R20R21R22R23
+        R24R26  0  0  0  0  0  0  0  0  0  0  0  0  0  0  0
++        13 12 12 13 12  8  8  8  8  8  7  7  7  7  8  7  7
++         7  7  7  7  7  7  7  7  7  7  7  8  8  7  7  7 11
++        12 11 10 11 10 10  4  4  4  4  4  4  4  4  4  4  4
++         4  4  4  4  4  4  4  4  3  4  4  4  4  3  3  3  3
++         3  3  3  3  3  3  3  3  3  3  4  3  3  3  3  3  3
++         3  3  3  3  3  3  3  3  3  3  8  8  8  6  5  5  5
++         5  5  5  7  5  5  6  5  5  6  5  5  6  6  5  5  5
++         0  8  0  0  0  0  0  0  0  0  0  0  0  0  0  0  0
%c M  cc GPS ccc cccc cccc cccc cccc ccccc ccccc ccccc ccccc
%c cc cc ccc ccc cccc cccc cccc cccc ccccc ccccc ccccc ccccc
%f  1.2500000  1.025000000  0.00000000000  0.000000000000000
%f  0.0000000  0.000000000  0.00000000000  0.000000000000000
%i    0    0    0    0      0      0      0      0         0
%i    0    0    0    0      0      0      0      0         0
/* INFORMATION & ANALYSIS CENTER (IAC)            FINAL DATA
/* S/V CLOCKS ARE ALIGNED TO GNSS TIME                      
/* G:C1WC2W R:C1PC2P E:C1XC5X C:C2IC6I J:C1CC2S             
/* PCV:IGS14_2091 OL/AL:FES2004  NONE     YN ORB:CoN CLK:CoN
*  2020 03 14 23 45  0.00000000
PC01 -32292.100184  27114.040767   -950.271378    313.825853
PC02   4446.835017  41924.922995    249.939437    482.471502
PC03 -14673.486656  39561.605296   -596.316280     64.481958
PC04 -39621.879701  14420.888843   -721.922969   -185.751826
PC05  21959.766586  36021.518844    558.931935   -126.791769
PC06 -15011.107317  21102.787059  33580.016758    240.899686
PC07 -23079.004928  34993.151750  -6309.295950    941.064230
PC08  -6704.382209  32129.115281 -26169.046614   -155.654025
PC09   1012.160270  25562.562032  33815.961246    401.873853
PC10 -11600.190283  36348.009826 -18206.622297   -755.542558
PC11 -11701.196965 -19611.528100  16130.069705   -240.678170
PC12   7743.050887 -13264.803098  23335.527749    332.118318
PC13   2739.859701  39368.340659 -14380.820878    323.494195
PC14  -1345.939626 -16990.420294 -22054.787158    236.217900
PC16 -10218.584307  22201.151669  34396.437287   -726.377523
PC19  11093.711514  11850.423129  22725.872035    352.190776
PC20  -7966.364859  19367.667823  18477.525350   -865.883123
PC21  22965.872577 -15535.506404  -3043.107846   -173.731086
PC22  24085.511778  -2656.593811  13824.462422   -872.787744
PC23 -15955.431525  -3904.218022  22557.295147   -922.804508
PC24   2872.553181 -27581.547712  -3264.620702   -901.971059
PC25 -10091.995505 -21903.736416  14051.285146   -548.538332
PC26  12499.465012 -17544.106616 -17765.923411    606.744537
PC27 -16675.500360   6996.831701 -21260.061363    295.270204
PC28 -25141.769802  -8293.716736  -8824.241202    286.225122
PC29  19560.519692  17919.046802  -8677.637638    200.981647
PC30   1880.139641  17972.995455 -21270.017821    286.728151
PC32 -22833.641341  15749.712835   3109.341499   -896.475378
PC33 -11128.010058 -11828.698046 -22685.090044   -911.489084
PC34  -2207.856816 -18128.016334  21090.144989   -547.998827
PC35  25451.265155   7534.169142   8680.098364   -939.461900
PC36   9450.744754  22280.860975 -13874.205488   -822.314906
PC37 -13152.593315  16616.617444  18160.991199   -858.422919
PC38  -5989.269195  34656.646464 -23170.912452     66.749533
PC39  -9662.079967  22572.444735  34275.618530     11.831515
PC40 -18702.240672  33474.747964 -17758.828299     26.203944
PC43 -19243.482795 -18144.178734   8857.645466 999999.999999
PC44  16690.876923  -7449.297646  21097.311618   -120.571648
PC45  15848.342099   3882.579842 -22636.720588     86.379198
PC46  -2498.526799  27624.280438   2894.335088    884.499545
PE01    970.671916 -25470.424449  15052.023065   -814.844039
PE02   -887.818319  25419.342777 -15130.857330    119.412013
PE03   5400.724678  16572.890285  23922.569310   -276.839633
PE04 -24233.517992  -8467.954883 -14732.480868   -485.125758
PE05 -16794.668527  15044.396401  19180.340363   -397.229339
PE07  29031.763700  -4732.386784  -3258.323740   -354.214064
PE08  24403.339799   8105.739588  14653.198211   6206.700703
PE09 -28993.599324   4973.110445   3364.854182   6125.503622
PE11 -18917.300146   -701.851632 -22747.880055   1734.778752
PE12 -20748.673884 -19147.640352  -8841.772877   5904.096094
PE13  18989.754221    949.783254  22700.711653    399.219609
PE14  24647.256848   1438.677544   6051.232372   -940.507674
PE15  20877.693270  18937.719596   9065.447060    873.975551
PE18 -23813.286747   9097.519089 -18591.696157  -1038.548720
PE19  -2970.582395 -16766.284939 -24207.614402     -1.136804
PE21  14302.153113 -25748.250132  -2985.898233   -587.954921
PE24 -19533.292476  10660.124108  19489.889546   5560.154092
PE25 -14354.934193  25697.513594   3090.377136   -506.693357
PE26   5930.170685 -17922.026197  22808.974802   3418.889526
PE27  19460.445523 -10921.615396 -19454.900974    262.189845
PE30  13048.751355  10564.480905 -24389.429817   4066.890376
PE31 -13169.141147 -10271.917217  24440.459902   -471.992809
PE33 -10486.764802 -25831.844940   9939.542187   -469.481518
PE36  -5942.590910  17623.486944 -23018.682615    585.992470
PG01  15652.418304   1934.470459  21217.921384   -326.033307
PG02 -13760.738258 -21688.130324  -6260.648576   -421.963881
PG03  20758.876106  -9361.734893  13531.416100   -118.085529
PG04  24994.774817   -597.812025  -8995.581026    -62.313375
PG05 -11375.488366 -10504.540542 -21708.059725     -9.125794
PG06  -6393.767629 -25564.728469   3192.937184   -231.040452
PG07   8461.772906 -16527.839905 -18513.959687   -235.868717
PG08  25865.720170   6265.379771  -2103.038511    -27.107456
PG09  18295.878878  -8967.535042 -17102.183636   -176.606596
PG10  -8727.323748  22150.901739  11609.078075   -277.454048
PG11  21736.269509   9081.306208  11484.875548   -333.892336
PG12 -20682.341171   6084.735749  15167.153321    140.654037
PG13 -21481.546375 -13332.201256  -8399.770857     -5.741234
PG14   9799.517058  16468.659561  18804.309275    -26.283077
PG15 -26432.604805  -3932.747075  -1858.469334   -244.948961
PG16  10584.216771  10505.517327 -22193.208265   -135.085697
PG17   1134.726055 -15018.178079  22304.244712    232.121579
PG19  -7615.160843 -15984.591251  19502.859926   -185.723912
PG20 -14767.748174  21936.094047    -38.127211    527.871057
PG21  -5777.568870  18558.459094 -17426.210389    -27.758167
PG22  18684.702579  -1375.065258  19002.813182   -785.452119
PG23  25031.951449  -2064.248483  -8832.822082   -129.667691
PG24 -17141.800897  -3340.388742  19909.373778    -10.357675
PG25 -19878.042117  16252.639380   5967.876202     -9.003490
PG26   2619.717472  18301.444959 -19018.767118    167.644537
PG27  20325.788136  12436.058459 -12207.984203   -238.603612
PG28   9221.686289 -21299.596815  13626.911516    732.836364
PG29 -20073.805294   5800.443492 -16442.690284    -56.630835
PG30    932.238778 -24192.960115 -10651.998820   -175.495229
PG31   7577.127215  25191.705882    217.846423    -29.453069
PG32    472.835808  15578.893178  21590.451014    236.282139
PJ01 -28280.750949  29954.765439  13915.733463   -345.424061
PJ02 -29594.366750  26107.375542  19615.391500     -1.849009
PJ03 -28237.337798  15919.722937 -22363.696890     -1.125277
PR01  21131.673740 -11781.541177  -8055.464175     58.540879
PR02   3168.945960 -12130.954984 -22182.223384    416.745331
PR03 -14814.325758  -5047.687851 -20084.329415     11.540796
PR04 -24121.640250   4994.014468  -6591.602902     42.013822
PR05 -19795.560702  12023.506888  10675.689041     46.763993
PR07  15353.238722   4758.837695  19857.182215    -34.342950
PR08  24149.417019  -4848.855808   6711.761414    -51.052395
PR09   -185.698606  23942.259947  -8881.240946    121.884360
PR11  11821.040631  -4681.338800 -22098.214975    -16.734755
PR12   9757.811076 -20259.265630 -12048.171724    114.001992
PR13   1924.471378 -24832.653963   5491.514346    -36.053943
PR14  -6773.390739 -14672.233672  19738.973344     49.129132
PR15 -11605.074517   3747.447714  22417.318992    106.138315
PR16  -9315.376126  20621.853508  11619.189932     -2.088698
PR17 -18667.632326 -17344.345923   1498.640473    309.047385
PR18 -19141.285490  -8083.401179 -14734.725977     28.503632
PR19  -9802.930581   4920.077332 -23024.318605    -83.776787
PR20   6937.278422  17151.110555 -17574.579069   -406.583069
PR21  18934.214925  17068.598175   -562.238968   -111.287837
PR22  18240.169716   6217.937171  16793.670780    -17.858071
PR23   4321.196171 -10005.429124  23058.678064    292.586809
PR24      0.000000      0.000000      0.000000 999999.999999
PR26   3493.493332  15214.970763 -20150.852341   -403.747413
EOF
